[{"OBJECT_NAME":"STARLINK-2526","OBJECT_ID":"2021-038AB","EPOCH":"2026-03-09T22:41:23.494848","MEAN_MOTION":15.30187905,"ECCENTRICITY":0.00013052,"INCLINATION":53.1612,"RA_OF_ASC_NODE":346.6542,"ARG_OF_PERICENTER":99.1282,"MEAN_ANOMALY":260.9866,"EPHEMERIS_TYPE":0,"CLASSIFICATION_TYPE":"U","NORAD_CAT_ID":48378,"ELEMENT_SET_NO":999,"REV_AT_EPOCH":26726,"BSTAR":-4.3294809e-5,"MEAN_MOTION_DOT":-1.641e-5,"MEAN_MOTION_DDOT":0},{"OBJECT_NAME":"SIMSAT 2","OBJECT_ID":"2000-026B","EPOCH":"2026-03-09T20:25:01.673184","MEAN_MOTION":15.29036787,"ECCENTRICITY":0.00037035,"INCLINATION":86.3514,"RA_OF_ASC_NODE":176.4271,"ARG_OF_PERICENTER":287.9875,"MEAN_ANOMALY":72.0969,"EPHEMERIS_TYPE":0,"CLASSIFICATION_TYPE":"U","NORAD_CAT_ID":26366,"ELEMENT_SET_NO":999,"REV_AT_EPOCH":42803,"BSTAR":0.00013465771,"MEAN_MOTION_DOT":3.833e-5,"MEAN_MOTION_DDOT":0}]
